FLOCK 1C-3              
1 40041U 14033AH  17191.49649421  .00000158  00000-0  22977-4 0  9993
2 40041  97.9262 103.9962 0011706 211.7423 148.3056 14.88661943165954
POLYITAN-1              
1 40042U 14033AJ  17191.51923614  .00000301  00000-0  38881-4 0  9997
2 40042  97.9187 102.5684 0013860 212.2832 147.7537 14.88067978165382
TIGRISAT                
1 40043U 14033AK  17191.59574489  .00000128  00000-0  26728-4 0  9992
2 40043  97.8544  75.4435 0059221 217.9363 141.7667 14.73986043163982
LEMUR-1                 
1 40044U 14033AL  17191.57971441  .00000139  00000-0  28458-4 0  9994
2 40044  97.8542  75.1666 0058352 219.1506 140.5474 14.73809815163862
AEROCUBE 6A             
1 40045U 14033AM  17191.61094260  .00000327  00000-0  55269-4 0  9994
2 40045  97.8662  76.6696 0057148 213.3283 146.4324 14.74835938163938
AEROCUBE 6B             
1 40046U 14033AN  17191.61100219  .00000325  00000-0  54952-4 0  9993
2 40046  97.8657  76.6019 0056395 212.9110 146.8584 14.74835893163931
UKUBE-1                 
1 40074U 14037F   17191.36030528  .00000197  00000-0  31084-4 0  9993
2 40074  98.3500 307.3214 0004473 353.7867   6.3289 14.83512861162612
BRITE-PL 2              
1 40119U 14049B   17191.47467403  .00000145  00000-0  23879-4 0  9990
2 40119  97.9363 277.2534 0017899  18.1165 342.0683 14.84146966156614
FIREBIRD 4              
1 40378U 15003C   17191.50816730  .00001509  00000-0  68310-4 0  9997
2 40378  99.1229  20.1569 0135180 285.1723  73.4588 15.15446965134543
GRIFEX                  
1 40379U 15003D   17191.46433714  .00001127  00000-0  55186-4 0  9993
2 40379  99.1249  17.7856 0141070 293.2281  65.4142 15.12992622134406
EXOCUBE                 
1 40380U 15003E   17191.60509156  .00000786  00000-0  41391-4 0  9998
2 40380  99.1290  16.6508 0144695 296.9178  61.7324 15.11508502134328
DEORBITSAIL             
1 40719U 15032E   17191.57658641  .00000447  00000-0  72079-4 0  9997
2 40719  97.9781  85.0394 0018066  69.1872 291.1271 14.76076062107771
TIANWANG 1C (TW-1C)     
1 40926U 15051B   17191.48491847  .00005211  00000-0  12000-3 0  9992
2 40926  97.2281 230.8668 0013678  87.0612  18.6162 15.42959022100514
TIANWANG 1B (TW-1B)     
1 40927U 15051C   17191.57542271  .00004965  00000-0  11874-3 0  9994
2 40927  97.2372 230.9642 0013499  94.3411  31.2140 15.41848623100473
TIANWANG 1A (TW-1A)     
1 40928U 15051D   17191.60823581  .00002422  00000-0  70643-4 0  9991
2 40928  97.2255 227.0024 0014357 110.7251   7.6213 15.36229934100294
LEMUR-2-JOEL            
1 40932U 15052C   17191.37420831  .00000745  00000-0  13668-4 0  9992
2 40932   6.0080  62.2708 0013631 227.2217 132.6979 14.77479807 96440
LEMUR-2-CHRIS           
1 40933U 15052D   17191.37425360  .00000619  00000-0 -36943-5 0  9998
2 40933   6.0059  61.1244 0014511 231.2620 128.6276 14.77621338 96455
LEMUR-2-JEROEN          
1 40934U 15052E   17191.28882154  .00000857  00000-0  30099-4 0  9995
2 40934   6.0089  67.0700 0011058 217.2101 142.7892 14.76966501 96366
LEMUR-2-PETER           
1 40935U 15052F   17191.37900240  .00000549  00000-0 -12372-4 0  9996
2 40935   6.0048  67.9219 0010586 212.1022 147.8284 14.76735524 96378
EXACTVIEW 9             
1 40936U 15052G   17187.13163950 -.00001897  00000-0 -35659-3 0  9995
2 40936   6.0007 100.5684 0010090 143.4995 216.5976 14.76275254 95740
ATHENOXAT 1             
1 41168U 15077C   17191.32064576  .00001592  00000-0  52328-4 0  9993
2 41168  14.9872   0.4366 0012723 335.6992 233.5562 15.11625828 86542
GALASSIA                
1 41170U 15077E   17191.26103782  .00001742  00000-0  59736-4 0  9999
2 41170  14.9901 357.1019 0013569 353.7581   6.2570 15.12126555 86570
VELOX 2                 
1 41171U 15077F   17191.27068446  .00001473  00000-0  48725-4 0  9995
2 41171  14.9926   9.6017 0009276 310.4290  49.5221 15.09897892 86468
AGGIESAT 4              
1 41313U 98067HP  17191.44181430  .00025789  00000-0  17453-3 0  9990
2 41313  51.6356 243.2415 0002186 247.6997 112.3771 15.74847555 82599
HORYU-IV                
1 41340U 16012D   17191.46871495  .00000516  00000-0  33041-4 0  9992
2 41340  31.0062 320.8397 0014427 305.2294  54.6991 15.00615679 76514
OUFTI-1                 
1 41458U 16025C   17191.60916346  .00000124  00000-0  11531-4 0  9992
2 41458  98.1829 230.5341 0173620 210.7055 148.3921 15.03208606 66100
E-ST@R-II               
1 41459U 16025D   17191.63253728  .00000671  00000-0  40564-4 0  9999
2 41459  98.1868 230.5043 0174370 211.0285 148.0548 15.03069755 66095
AAUSAT 4                
1 41460U 16025E   17191.48302700  .00000423  00000-0  27435-4 0  9996
2 41460  98.1768 230.4599 0166889 209.6836 149.4843 15.03958781 66091
DIWATA-1                
1 41463U 98067HT  17191.52071759  .00005054  00000-0  61254-4 0  9999
2 41463  51.6418 267.5372 0000207 191.0290   2.2371 15.62603417 68440
NODES 2                 
1 41477U 98067HX  17191.35702336  .00081594  00000-0  33435-3 0  9999
2 41477  51.6253 242.4786 0002335 355.2371   4.8610 15.85326767 65740
NODES 1                 
1 41478U 98067HY  17191.40796521  .00078157  00000-0  33126-3 0  9993
2 41478  51.6288 242.8582 0002305 356.9899   3.1090 15.84639595 65746
FLOCK 2E'-1             
1 41479U 98067HZ  17191.45390909  .00022577  00000-0  18950-3 0  9992
2 41479  51.6345 257.6167 0001919 344.4677  15.6261 15.69826333 65514
FLOCK 2E'-3             
1 41480U 98067JA  17191.41654705  .00020104  00000-0  17040-3 0  9990
2 41480  51.6344 257.3876 0001460  20.1062 339.9993 15.69672785 65509
FLOCK 2E'-2             
1 41481U 98067JB  17191.41944240  .00020234  00000-0  16614-3 0  9997
2 41481  51.6327 255.8595 0001897 336.2143  23.8766 15.70438339 65512
FLOCK 2E'-4             
1 41482U 98067JC  17191.42014729  .00035074  00000-0  25848-3 0  9996
2 41482  51.6323 254.3437 0001354  19.0481 341.0568 15.72681966 65532
FLOCK 2E-1              
1 41483U 98067JD  17191.45303094  .00018299  00000-0  16221-3 0  9991
2 41483  51.6360 258.4249 0001461  91.0766 269.0398 15.68649294 65358
FLOCK 2E-2              
1 41484U 98067JE  17191.41824189  .00019896  00000-0  16495-3 0  9998
2 41484  51.6370 256.7100 0000900  94.5120 265.5980 15.70216661 65377
FLOCK 2E-3              
1 41486U 98067JG  17191.47340045  .00023782  00000-0  21023-3 0  9992
2 41486  51.6354 260.0523 0000537  92.3828 267.7230 15.68526517 65356
FLOCK 2E-4              
1 41487U 98067JH  17191.44424237  .00016528  00000-0  14634-3 0  9996
2 41487  51.6354 258.3319 0001878 160.8432 199.2636 15.68764674 65370
FLOCK 2E-6              
1 41563U 98067JM  17191.46058203  .00014730  00000-0  13950-3 0  9992
2 41563  51.6353 260.6913 0001722 336.1064  23.9852 15.67204459 63412
FLOCK 2E-5              
1 41564U 98067JN  17191.47267600  .00015206  00000-0  14441-3 0  9992
2 41564  51.6355 260.7801 0001596 342.5551  17.5390 15.67104197 63406
FLOCK 2E-7              
1 41565U 98067JP  17191.42746496  .00021884  00000-0  17963-3 0  9994
2 41565  51.6345 256.6879 0002364 217.1845 142.8989 15.70388041 63358
FLOCK 2E-8              
1 41566U 98067JQ  17191.35848006  .00397424  84342-4  54071-3 0  9999
2 41566  51.6205 231.7854 0009988  19.1256 341.0129 16.05627577 63668
FLOCK 2E'-5             
1 41567U 98067JR  17191.41499378  .00012938  00000-0  12805-3 0  9999
2 41567  51.6363 262.6623 0003187 230.9536 129.1176 15.66231440 63247
FLOCK 2E'-6             
1 41568U 98067JS  17191.42966517  .00016520  00000-0  15016-3 0  9993
2 41568  51.6348 259.7143 0002622 235.7960 124.2788 15.68116907 63317
FLOCK 2E'-8             
1 41569U 98067JT  17191.39315085  .00020540  00000-0  16705-3 0  9991
2 41569  51.6343 256.4607 0000273 129.5006 230.6016 15.70656484 63232
FLOCK 2E'-7             
1 41570U 98067JU  17191.42444309  .00028337  00000-0  20144-3 0  9993
2 41570  51.6335 252.9233 0000773  97.4402 262.6684 15.73645531 63307
FLOCK 2E-9              
1 41571U 98067JV  17191.44437338  .00021793  00000-0  17063-3 0  9995
2 41571  51.6345 255.3179 0001431 228.4179 131.6696 15.71527611 63230
FLOCK 2E-10             
1 41572U 98067JW  17191.24872972  .00020895  00000-0  17654-3 0  9999
2 41572  51.6347 258.5212 0002550 222.6343 137.4457 15.69720397 63173
FLOCK 2E-12             
1 41573U 98067JX  17191.42789996  .00021391  00000-0  17426-3 0  9992
2 41573  51.6342 256.7008 0002193 246.1200 113.9568 15.70586806 63212
FLOCK 2E-11             
1 41574U 98067JY  17191.42117928  .00023422  00000-0  18883-3 0  9998
2 41574  51.6332 255.8576 0003058 245.5987 114.4692 15.70773239 63221
FLOCK 2E'-9             
1 41575U 98067JZ  17191.40219432  .00031804  00000-0  24276-3 0  9996
2 41575  51.6323 254.9562 0003243 271.4925  88.5701 15.71897205 63226
FLOCK 2E'-10            
1 41576U 98067KA  17191.41659569  .00023387  00000-0  18907-3 0  9998
2 41576  51.6354 256.6525 0003064 264.8623  95.2025 15.70708103 63109
FLOCK 2E'-11            
1 41577U 98067KB  17191.46082405  .00021225  00000-0  17605-3 0  9996
2 41577  51.6355 256.9580 0002913 236.9172 123.1546 15.70156188 62924
FLOCK 2E'-12            
1 41578U 98067KC  17191.44189260  .00026435  00000-0  20549-3 0  9991
2 41578  51.6328 256.0036 0002558 229.8875 130.1899 15.71571345 62935
FLOCK 2P-6              
1 41606U 16040H   17191.50032640  .00001719  00000-0  77652-4 0  9996
2 41606  97.4580 254.0263 0010798   2.3666 357.7619 15.22278837 58255
FLOCK 2P-11             
1 41608U 16040K   17191.44022676  .00001885  00000-0  84871-4 0  9994
2 41608  97.4575 253.9358 0010820   2.9327 357.1970 15.22272911 58183
FLOCK 2P-2              
1 41609U 16040L   17191.39084680  .00002027  00000-0  91016-4 0  9990
2 41609  97.4580 253.8748 0010736   2.4569 357.6717 15.22279989 58154
FLOCK 2P-9              
1 41610U 16040M   17191.46735385  .00001812  00000-0  81693-4 0  9996
2 41610  97.4577 253.9120 0010998   2.3818 357.7468 15.22273260 58041
